OBJECT_NAME,OBJECT_ID,EPOCH,MEAN_MOTION,ECCENTRICITY,INCLINATION,RA_OF_ASC_NODE,ARG_OF_PERICENTER,MEAN_ANOMALY,EPHEMERIS_TYPE,CLASSIFICATION_TYPE,NORAD_CAT_ID,ELEMENT_SET_NO,REV_AT_EPOCH,BSTAR,MEAN_MOTION_DOT,MEAN_MOTION_DDOT
QIANFAN-199,2026-125S,2026-06-28T13:24:37.696896,14.23631612,.0017208,88.9955,279.1405,138.0262,222.2253,0,U,69417,999,332,.17215046E-3,.407E-5,0
QIANFAN-200,2026-125T,2026-06-28T14:23:27.679488,14.19641591,.00162484,88.9955,279.1468,136.0080,224.2407,0,U,69418,999,332,.17216406E-3,.378E-5,0
STARLINK-37537,2026-126A,2026-06-28T14:36:21.801024,15.75227146,.00011714,97.2832,40.1455,80.7046,279.4352,0,U,69420,999,454,.42260417E-3,.63476E-3,0
STARLINK-37585,2026-126B,2026-06-28T14:21:07.003872,15.75223843,.00005227,97.2824,40.1606,143.6587,216.4714,0,U,69421,999,454,.7927696E-3,.119965E-2,0
STARLINK-37573,2026-126C,2026-06-28T14:40:56.042400,15.75212119,.00013128,97.2830,40.1409,84.7470,275.3945,0,U,69422,999,454,.60800303E-3,.91624E-3,0
STARLINK-37820,2026-126D,2026-06-28T14:00:01.000224,15.76023014,.00015998,97.2836,40.2318,85.3884,29.2184,0,U,69423,999,455,-.83770785E-2,-.115581E-1,0
STARLINK-37822,2026-126E,2026-06-28T13:54:11.107872,15.75215217,.00012958,97.2828,40.1865,355.0075,5.1177,0,U,69424,999,454,.89881943E-3,.136242E-2,0
STARLINK-37836,2026-126F,2026-06-28T04:21:50.737536,15.80009256,.00005982,97.2825,39.8092,76.7074,283.4261,0,U,69425,999,448,.12410605E-2,.235326E-2,0
STARLINK-37850,2026-126G,2026-06-28T14:00:01.000224,15.75200810,.00016429,97.2834,40.2271,88.6539,14.4033,0,U,69426,999,460,-.16294715E-4,-.2561E-4,0
STARLINK-37823,2026-126H,2026-06-28T14:03:19.847232,15.75193996,.00011202,97.2843,40.1780,78.0352,282.1039,0,U,69427,999,454,.40452293E-3,.60647E-3,0
STARLINK-37834,2026-126J,2026-06-28T14:15:31.781376,15.75217188,.00008406,97.2844,40.1668,62.3618,297.7733,0,U,69428,999,454,.76448094E-3,.115587E-2,0
STARLINK-37857,2026-126K,2026-06-28T13:59:15.967680,15.75220625,.00008604,97.2844,40.1826,71.7403,288.3956,0,U,69429,999,454,.66630776E-3,.100564E-2,0
STARLINK-37866,2026-126L,2026-06-28T13:27:46.476576,15.80055751,.00016715,97.2825,40.2122,121.3428,238.8003,0,U,69430,999,459,.17410104E-2,.334716E-2,0
STARLINK-37555,2026-126M,2026-06-28T14:00:01.000224,15.75257002,.00016505,97.2831,40.2143,95.3131,335.7260,0,U,69431,999,460,-.51915091E-3,-.77096E-3,0
STARLINK-37870,2026-126N,2026-06-28T14:00:01.000224,15.75195429,.00015337,97.2831,40.2229,90.1227,0.9436,0,U,69432,999,455,-.10519678E-4,-.1699E-4,0
STARLINK-37872,2026-126P,2026-06-27T20:43:44.432544,15.80022067,.00018839,97.2832,39.4777,104.5418,255.6059,0,U,69433,999,443,.13304982E-2,.252957E-2,0
STARLINK-37815,2026-126Q,2026-06-28T14:26:42.520992,15.75232023,.00011079,97.2842,40.1552,82.3694,277.7697,0,U,69434,999,454,.78273591E-3,.118467E-2,0
STARLINK-37801,2026-126R,2026-06-28T14:06:23.004000,15.75202785,.00013929,97.2853,40.1771,90.5282,269.6143,0,U,69435,999,459,.27230458E-3,.40703E-3,0
STARLINK-37800,2026-126S,2026-06-28T14:09:25.867008,15.75222881,.00011478,97.2828,40.1717,86.4868,273.6528,0,U,69436,999,454,.59548986E-3,.89757E-3,0
STARLINK-37792,2026-126T,2026-06-28T13:25:57.399168,15.80066221,.00015959,97.2831,40.2139,126.4708,233.6707,0,U,69437,999,459,.16949071E-2,.32566E-2,0
STARLINK-37783,2026-126U,2026-06-28T13:25:26.239872,15.80048111,.00014591,97.2825,40.2145,108.4417,251.7010,0,U,69438,999,459,.16404447E-2,.314526E-2,0
STARLINK-37771,2026-126V,2026-06-28T14:32:48.204672,15.75217585,.00005114,97.2831,40.1497,174.2840,185.8431,0,U,69439,999,454,.75048136E-3,.113441E-2,0
STARLINK-37747,2026-126W,2026-06-28T14:00:01.000224,15.75192252,.00014422,97.2827,40.2037,92.4262,314.6455,0,U,69440,999,455,.24932618E-4,.3591E-4,0
STARLINK-37629,2026-127A,2026-06-28T12:52:03.459360,15.75276656,.00012156,53.1582,206.0109,99.4592,260.6566,0,U,69443,999,319,.73021542E-3,.112985E-2,0
STARLINK-37509,2026-127B,2026-06-28T12:45:59.706720,15.75271887,.00010681,53.1589,205.9820,90.1114,270.0029,0,U,69444,999,319,.70059459E-3,.108292E-2,0
STARLINK-37641,2026-127C,2026-06-28T13:57:16.639776,15.75261933,.00011958,53.1582,205.5742,81.5792,278.5363,0,U,69445,999,320,.49976784E-3,.76743E-3,0
STARLINK-37522,2026-127D,2026-06-28T12:45:31.159296,15.75287135,.00005472,53.1590,205.9801,72.0807,288.0273,0,U,69446,999,319,.99447216E-3,.15495E-2,0
STARLINK-37640,2026-127E,2026-06-28T14:00:01.000224,15.75259044,.00011368,53.1584,205.4080,79.5730,8.5871,0,U,69447,999,447,-.24018115E-3,-.37326E-3,0
STARLINK-37572,2026-127F,2026-06-28T14:04:17.094144,15.75267063,.00011899,53.1588,205.6055,89.5068,270.6089,0,U,69448,999,320,.56973359E-3,.87711E-3,0
