QIANFAN-199             
1 69417U 26125S   26179.55876964  .00000407  00000+0  17215-3 0  9997
2 69417  88.9955 279.1405 0017208 138.0262 222.2253 14.23631612  3326
QIANFAN-200             
1 69418U 26125T   26179.59962592  .00000378  00000+0  17216-3 0  9993
2 69418  88.9955 279.1468 0016248 136.0080 224.2407 14.19641591  3320
STARLINK-37537          
1 69420U 26126A   26179.60858566  .00063476  00000+0  42260-3 0  9999
2 69420  97.2832  40.1455 0001171  80.7046 279.4352 15.75227146  4543
STARLINK-37585          
1 69421U 26126B   26179.59799773  .00119965  00000+0  79277-3 0  9995
2 69421  97.2824  40.1606 0000522 143.6587 216.4714 15.75223843  4544
STARLINK-37573          
1 69422U 26126C   26179.61175975  .00091624  00000+0  60800-3 0  9994
2 69422  97.2830  40.1409 0001312  84.7470 275.3945 15.75212119  4541
STARLINK-37820          
1 69423U 26126D   26179.58334491 -.01155810  00000+0 -83771-2 0  9993
2 69423  97.2836  40.2318 0001599  85.3884  29.2184 15.76023014  4558
STARLINK-37822          
1 69424U 26126E   26179.57929523  .00136242  00000+0  89882-3 0  9994
2 69424  97.2828  40.1865 0001295 355.0075   5.1177 15.75215217  4549
STARLINK-37836          
1 69425U 26126F   26179.18183724  .00235326  00000+0  12411-2 0  9993
2 69425  97.2825  39.8092 0000598  76.7074 283.4261 15.80009256  4483
STARLINK-37850          
1 69426U 26126G   26179.58334491 -.00002561  00000+0 -16295-4 0  9998
2 69426  97.2834  40.2271 0001642  88.6539  14.4033 15.75200810  4604
STARLINK-37823          
1 69427U 26126H   26179.58564638  .00060647  00000+0  40452-3 0  9995
2 69427  97.2843  40.1780 0001120  78.0352 282.1039 15.75193996  4545
STARLINK-37834          
1 69428U 26126J   26179.59411784  .00115587  00000+0  76448-3 0  9998
2 69428  97.2844  40.1668 0000840  62.3618 297.7733 15.75217188  4544
STARLINK-37857          
1 69429U 26126K   26179.58282370  .00100564  00000+0  66631-3 0  9997
2 69429  97.2844  40.1826 0000860  71.7403 288.3956 15.75220625  4542
STARLINK-37866          
1 69430U 26126L   26179.56095459  .00334716  00000+0  17410-2 0  9995
2 69430  97.2825  40.2122 0001671 121.3428 238.8003 15.80055751  4593
STARLINK-37555          
1 69431U 26126M   26179.58334491 -.00077096  00000+0 -51915-3 0  9996
2 69431  97.2831  40.2143 0001650  95.3131 335.7260 15.75257002  4603
STARLINK-37870          
1 69432U 26126N   26179.58334491 -.00001699  00000+0 -10520-4 0  9991
2 69432  97.2831  40.2229 0001533  90.1227   0.9436 15.75195429  4552
STARLINK-37872          
1 69433U 26126P   26178.86370871  .00252957  00000+0  13305-2 0  9999
2 69433  97.2832  39.4777 0001883 104.5418 255.6059 15.80022067  4432
STARLINK-37815          
1 69434U 26126Q   26179.60188103  .00118467  00000+0  78274-3 0  9992
2 69434  97.2842  40.1552 0001107  82.3694 277.7697 15.75232023  4546
STARLINK-37801          
1 69435U 26126R   26179.58776625  .00040703  00000+0  27230-3 0  9995
2 69435  97.2853  40.1771 0001392  90.5282 269.6143 15.75202785  4595
STARLINK-37800          
1 69436U 26126S   26179.58988272  .00089757  00000+0  59549-3 0  9999
2 69436  97.2828  40.1717 0001147  86.4868 273.6528 15.75222881  4546
STARLINK-37792          
1 69437U 26126T   26179.55969212  .00325660  00000+0  16949-2 0  9992
2 69437  97.2831  40.2139 0001595 126.4708 233.6707 15.80066221  4595
STARLINK-37783          
1 69438U 26126U   26179.55933148  .00314526  00000+0  16404-2 0  9997
2 69438  97.2825  40.2145 0001459 108.4417 251.7010 15.80048111  4598
STARLINK-37771          
1 69439U 26126V   26179.60611348  .00113441  00000+0  75048-3 0  9992
2 69439  97.2831  40.1497 0000511 174.2840 185.8431 15.75217585  4540
STARLINK-37747          
1 69440U 26126W   26179.58334491  .00003591  00000+0  24933-4 0  9994
2 69440  97.2827  40.2037 0001442  92.4262 314.6455 15.75192252  4553
STARLINK-37629          
1 69443U 26127A   26179.53615115  .00112985  00000+0  73022-3 0  9998
2 69443  53.1582 206.0109 0001215  99.4592 260.6566 15.75276656  3191
STARLINK-37509          
1 69444U 26127B   26179.53194105  .00108292  00000+0  70059-3 0  9993
2 69444  53.1589 205.9820 0001068  90.1114 270.0029 15.75271887  3191
STARLINK-37641          
1 69445U 26127C   26179.58144259  .00076743  00000+0  49977-3 0  9994
2 69445  53.1582 205.5742 0001195  81.5792 278.5363 15.75261933  3208
STARLINK-37522          
1 69446U 26127D   26179.53161064  .00154950  00000+0  99447-3 0  9997
2 69446  53.1590 205.9801 0000547  72.0807 288.0273 15.75287135  3196
STARLINK-37640          
1 69447U 26127E   26179.58334491 -.00037326  00000+0 -24018-3 0  9990
2 69447  53.1584 205.4080 0001136  79.5730   8.5871 15.75259044  4475
STARLINK-37572          
1 69448U 26127F   26179.58630896  .00087711  00000+0  56973-3 0  9995
2 69448  53.1588 205.6055 0001189  89.5068 270.6089 15.75267063  3200
